GONETS-M 23             
1 54150U 22139A   25356.89327222  .00000042  00000+0  23473-3 0  9995
2 54150  82.5059  97.8581 0020739 243.8003 116.0945 12.42862536143749
GONETS-M 24             
1 54151U 22139B   25356.86589456  .00000043  00000+0  24123-3 0  9996
2 54151  82.4978  97.0548 0015799 253.7016 106.2326 12.42860540143745
GONETS-M 25             
1 54152U 22139C   25356.85226903  .00000044  00000+0  24503-3 0  9994
2 54152  82.5040  97.6550 0019721 252.7903 107.1018 12.42859389143746
SKIF-D                  
1 54153U 22139D   25355.58279668  .00000013  00000+0  00000+0 0  9998
2 54153  89.9618  96.7231 0006545 250.8803 109.1046  5.00428430 55226
MATS                    
1 54227U 22147A   25356.55914022  .00003917  00000+0  28801-3 0  9996
2 54227  97.6776 354.1339 0014120  79.4250 280.8566 15.03912581171208
JILIN-1 GAOFEN 03D54    
1 54254U 22155D   25356.89819416  .00054247  00000+0  78201-3 0  9994
2 54254  97.6025 129.0699 0004386 272.8198  87.2554 15.55831503172608
EOS-6 (OCEANSAT-3)      
1 54361U 22158A   25356.83252296  .00000317  00000+0  99199-4 0  9996
2 54361  98.3545  92.4201 0002236 129.9104 230.2285 14.46967619162332
DONGPO 09               
1 54685U 22167D   25356.84128441  .00013823  00000+0  45879-3 0  9991
2 54685  97.6729 155.7641 0003611  43.4700 316.6824 15.31352125168416
DONGPO 08               
1 54686U 22167E   25356.86729590  .00012725  00000+0  45136-3 0  9992
2 54686  97.6685 153.7462 0009978  72.4464 287.7865 15.29170774168337
2022-167F               
1 54687U 22167F   25356.84172010  .00047979  00000+0  64670-3 0  9993
2 54687  97.6202 163.6278 0003362 340.4906  19.6220 15.57681896169137
DONGPO 10               
1 54689U 22167H   25356.89458390  .00012534  00000+0  43556-3 0  9997
2 54689  97.6769 155.3193 0005957  28.8809 331.2759 15.29874717168361
JILIN-1 GAOFEN 03D48    
1 54695U 22167P   25356.83896562  .00013276  00000+0  45312-3 0  9991
2 54695  97.6700 154.6139 0007532  31.7680 328.4013 15.30437326168371
STAR VIBE               
1 55009U 23001A   25356.88830442  .00013812  00000+0  38232-3 0  9998
2 55009  97.3442  56.0755 0007280  41.0351 319.1440 15.37080197165093
BRO-8                   
1 55011U 23001C   25356.86923110  .00025053  00000+0  66373-3 0  9991
2 55011  97.3500  55.6514 0008095  48.0027 312.1907 15.38306367165004
CONNECTA T1.2           
1 55012U 23001D   25356.72110916  .00014553  00000+0  35962-3 0  9992
2 55012  97.3542  60.4612 0007599  30.2346 329.9337 15.40557505165298
BIRKELAND               
1 55015U 23001G   25356.86728417  .00010080  00000+0  28660-3 0  9999
2 55015  97.3588  59.6282 0007791  31.9744 328.1972 15.36321936165241
ION SCV-008             
1 55051U 23001AU  25356.21240209  .00007605  00000+0  29985-3 0  9996
2 55051  97.5773  84.9276 0014422 276.5903  83.3692 15.25774570164327
ION SCV-007             
1 55060U 23001BD  25356.16487691  .00000521  00000+0  80452-4 0  9995
2 55060  97.9268  57.4901 0012311 181.6196 178.4976 14.77332512160111
HUYGENS                 
1 55093U 23001CN  25356.86737358  .00010090  00000+0  28671-3 0  9992
2 55093  97.3503  59.0739 0010242   7.7893 352.3508 15.36318298165269
SHARJAHSAT-1            
1 55104U 23001CZ  25356.82189039  .00019431  00000+0  46100-3 0  9993
2 55104  97.3448  58.8127 0007332  34.0946 326.0771 15.41731244165251
HORUS 1                 
1 55690U 23025A   25356.85693176  .00007062  00000+0  29912-3 0  9993
2 55690  97.3666  69.9818 0002382 112.7537 247.3952 15.23459709157208
HORUS 2                 
1 55844U 23032A   25356.82608654  .00007919  00000+0  33522-3 0  9999
2 55844  97.3733  70.5979 0001003 112.7655 247.3688 15.23443892154636
GLOBAL-19               
1 55982U 23041B   25355.53358424  .00012416  00000+0  33457-3 0  9991
2 55982  42.0061 158.3830 0007238 286.4266  73.5778 15.37662615154566
BRO-9                   
1 56185U 23054H   25356.60383814  .00047750  00000+0  60441-3 0  9993
2 56185  97.3114 261.8898 0003226   4.0189 356.1093 15.59359357151353
ION SCV-010             
1 56192U 23054Q   25356.42205117  .00006277  00000+0  26051-3 0  9998
2 56192  97.3996 243.1526 0015188 105.5193 254.7723 15.24100981149250
GHOST-1                 
1 56195U 23054T   25356.49030427  .00064980  00000+0  60199-3 0  9994
2 56195  97.3105 264.5434 0003016 354.5200   5.6028 15.67298943151507
TELEOS-2                
1 56310U 23057C   25356.59685866  .00007090  00000+0  54947-3 0  9993
2 56310   9.9897  49.9641 0000828 278.1346  81.8774 14.96394265146309
SNIPE 4                 
1 56744U 23072B   25356.83645948  .00019056  00000+0  57249-3 0  9998
2 56744  97.5364 193.0593 0005152 234.9346 125.1414 15.34454978142999
SNIPE 2                 
1 56745U 23072C   25356.83699021  .00023787  00000+0  65410-3 0  9995
2 56745  97.5378 195.1086 0004252 277.4357  82.6404 15.37190247143063
2023-072G               
1 56749U 23072G   25356.82531347  .00024602  00000+0  61429-3 0  9997
2 56749  97.5034 193.8144 0003414 266.2200  93.8655 15.40156824143225
OTTER PUP               
1 56933U 23084B   25355.96508406  .00072280  00000+0  74799-3 0  9998
2 56933  97.5798 140.0963 0002870 168.4513 191.6812 15.64492113141281
GEISAT PRECURSOR        
1 56934U 23084C   25356.87062141  .00008074  00000+0  26828-3 0  9991
2 56934  97.5986 127.7222 0005126 240.8589 119.2139 15.31464427140510
AFRL-XVI                
1 56942U 23084L   25356.38956758  .00386208  67629-4  67043-3 0  9999
2 56942  97.5602 151.5759 0001587 280.2430  79.8670 16.02269757142032
BLACKJACK ACES-3        
1 56950U 23084U   25356.83016657  .00008471  00000+0  38509-3 0  9996
2 56950  97.5971 125.6662 0007299 240.7930 119.2575 15.20980821140387
BLACKJACK ACES-4        
1 56952U 23084W   25356.40427682  .00201529  00000+0  85781-3 0  9998
2 56952  97.5768 145.8287 0002688 208.1791 151.9334 15.84719937141655
BLACKJACK ACES-2        
1 56955U 23084Z   25356.83573828  .00011306  00000+0  51097-3 0  9997
2 56955  97.5977 125.7601 0007245 233.2696 126.7875 15.21095885140394
BLACKJACK ACES-1        
1 56956U 23084AA  25356.82471115  .00011274  00000+0  51144-3 0  9990
2 56956  97.5954 125.5553 0006233 238.5320 121.5306 15.20971982 90118
ION SCV-011             
1 56957U 23084AB  25356.42768220  .00006953  00000+0  26941-3 0  9998
2 56957  98.1272 162.6760 0006456 295.9800  64.0771 15.26507405138827
GHOST-3                 
1 56958U 23084AC  25356.81499661  .00017975  00000+0  44141-3 0  9990
2 56958  97.5984 132.1366 0007112 205.1796 154.9104 15.40712192140797
TOMORROW-R2             
1 56962U 23084AG  25356.33274050  .00059907  00000+0  75820-3 0  9994
2 56962  97.5870 138.6805 0005920 183.2912 176.8306 15.59297264141196
AFR-1                   
1 56964U 23084AJ  25356.89695856  .00005909  00000+0  22944-3 0  9990
2 56964  97.6031 124.9076 0009794 235.6875 124.3436 15.26441206140315
DROID.001               
1 56965U 23084AK  25356.37119183  .00126500  00000+0  91744-3 0  9993
2 56965  97.5818 141.8686 0003671 182.2648 177.8599 15.73022985141412
METEOR-M2 3             
1 57166U 23091A   25356.87966793  .00000020  00000+0  27621-4 0  9999
2 57166  98.6364  50.2413 0003362 337.7646  22.3386 14.24027255129422
STRATOSAT-TK 1 (RS52S)  
1 57167U 23091B   25356.54621933  .00410199  00000+0  18661-2 0  9992
2 57167  97.5161  69.8793 0005715 294.0497  66.0173 15.82775927138426
UMKA 1 (RS40S)          
1 57172U 23091G   25356.56247986  .00007274  00000+0  35719-3 0  9992
2 57172  97.5323  50.9846 0013954  21.3805 338.8009 15.18292254137186
2023-091H               
1 57173U 23091H   25356.59269188  .00012593  00000+0  52011-3 0  9998
2 57173  97.5316  53.6697 0011319  22.3523 337.8205 15.24097983137360
2023-091J               
1 57174U 23091J   25356.56806921  .00004665  00000+0  27192-3 0  9991
2 57174  97.5330  47.0979 0014669  42.0863 318.1492 15.12382521136927
CUBEBEL 2 (EU11S)       
1 57175U 23091K   25356.56891584  .00014640  00000+0  60091-3 0  9990
2 57175  97.5322  53.5671 0011322  24.4376 335.7396 15.24269062137359
SITRO-AIS 5 (KATYS)     
1 57176U 23091L   25356.82375073  .00012655  00000+0  51305-3 0  9992
2 57176  97.5327  54.3920 0012764  10.9277 349.2235 15.24705074137420
ZORKIY-2M 1             
1 57177U 23091M   25356.60726343  .00007606  00000+0  37572-3 0  9999
2 57177  97.5364  51.2203 0014527  17.9303 342.2441 15.18059327137189
CUBESX-HSE 3 (RS42S)    
1 57178U 23091N   25356.58222356  .00014286  00000+0  55661-3 0  9993
2 57178  97.5357  55.3483 0011982   3.2248 356.9065 15.26016123137444
MONITOR-3 (RS58S)       
1 57180U 23091Q   25356.59825391  .00011636  00000+0  48769-3 0  9992
2 57180  97.5349  54.0274 0012908   7.4276 352.7150 15.23603924137366
MONITOR-4 (RS57S)       
1 57182U 23091S   25356.58725521  .00011917  00000+0  49836-3 0  9995
2 57182  97.5344  53.9776 0012931   8.0041 352.1400 15.23673415137365
MONITOR-2 (RS39S)       
1 57184U 23091U   25356.58383516  .00005839  00000+0  29986-3 0  9991
2 57184  97.5349  50.9951 0012008  13.9289 346.2273 15.16831385137162
SVYATOBOR 1 (RS60S)     
1 57187U 23091X   25356.61164892  .00009658  00000+0  41362-3 0  9997
2 57187  97.5356  54.6549 0010080   1.2338 358.8921 15.22954441137402
HORS 1                  
1 57188U 23091Y   25356.60583593  .00009806  00000+0  41936-3 0  9992
2 57188  97.5336  54.4403 0009585   1.5410 358.5854 15.23000214137403
VIZARD-METEO (RS38S)    
1 57189U 23091Z   25356.58480830  .00017201  00000+0  60034-3 0  9998
2 57189  97.5349  58.1185 0007864 348.6494  11.4567 15.29642482137637
NANOZOND 1 (RS49S)      
1 57190U 23091AA  25356.59964553  .00070114  00000+0  10597-2 0  9990
2 57190  97.5269  66.9620 0004190 320.6077  39.4871 15.54470584138232
SITRO-AIS 6 (CHIRKIN)   
1 57192U 23091AC  25356.61859918  .00007110  00000+0  30388-3 0  9990
2 57192  97.5329  54.0305 0012811  14.2150 345.9445 15.23094275137388
